{
  "norad_id": 49026,
  "name": "YAOGAN-30 11A",
  "history": [
    {
      "epoch": "2026-03-28T23:38:18.708000Z",
      "apogee_km": 563.3332754842231,
      "perigee_km": 556.6965169063969,
      "latitude_deg": 3.052083845473068e-05,
      "longitude_deg": -139.1883425313318,
      "height_km": 562.2251574974231,
      "semi_major_axis_km": 6938.15189619531,
      "eccentricity": 0.00047828,
      "inclination_deg": 34.9942,
      "raan_deg": 41.7871,
      "arg_perigee_deg": 186.9294,
      "mean_anomaly_deg": 173.1349,
      "mean_motion_rev_day": 15.02232165
    },
    {
      "epoch": "2026-03-29T04:25:25.134816Z",
      "apogee_km": 563.3744288411754,
      "perigee_km": 556.644426806186,
      "latitude_deg": 3.640932284972586e-05,
      "longitude_deg": 147.6241696855597,
      "height_km": 562.2571209614904,
      "semi_major_axis_km": 6938.14642782368,
      "eccentricity": 0.000485,
      "inclination_deg": 34.9942,
      "raan_deg": 40.5729,
      "arg_perigee_deg": 188.0915,
      "mean_anomaly_deg": 171.9716,
      "mean_motion_rev_day": 15.02233941
    },
    {
      "epoch": "2026-03-30T04:20:56.791104Z",
      "apogee_km": 563.4156846345977,
      "perigee_km": 556.5413997553906,
      "latitude_deg": -8.38060938142748e-06,
      "longitude_deg": 141.6876217482212,
      "height_km": 562.1923320714734,
      "semi_major_axis_km": 6938.115542194994,
      "eccentricity": 0.0004954,
      "inclination_deg": 34.9945,
      "raan_deg": 34.5009,
      "arg_perigee_deg": 196.4149,
      "mean_anomaly_deg": 163.6399,
      "mean_motion_rev_day": 15.02243972
    },
    {
      "epoch": "2026-03-30T05:56:38.880672Z",
      "apogee_km": 563.4257883582741,
      "perigee_km": 556.527638179994,
      "latitude_deg": 3.856192883074369e-06,
      "longitude_deg": 117.29206066476318,
      "height_km": 562.1953714611424,
      "semi_major_axis_km": 6938.113713269134,
      "eccentricity": 0.00049712,
      "inclination_deg": 34.9945,
      "raan_deg": 34.0962,
      "arg_perigee_deg": 196.7985,
      "mean_anomaly_deg": 163.2559,
      "mean_motion_rev_day": 15.02244566
    },
    {
      "epoch": "2026-03-30T12:19:27.251904Z",
      "apogee_km": 563.4087522663394,
      "perigee_km": 556.5337807850383,
      "latitude_deg": 2.5834013410630252e-05,
      "longitude_deg": 19.709323869656487,
      "height_km": 562.138024372657,
      "semi_major_axis_km": 6938.108266525688,
      "eccentricity": 0.00049545,
      "inclination_deg": 34.9945,
      "raan_deg": 32.477,
      "arg_perigee_deg": 199.0173,
      "mean_anomaly_deg": 161.0351,
      "mean_motion_rev_day": 15.02246335
    }
  ]
}